{
  "type": "FeatureCollection",
  "features": [
    {
      "type": "Feature",
      "properties": {
        "norad_id": 40889,
        "name": "GSAT0205 (GALILEO 9)",
        "group": "galileo",
        "lat": 51.26425633144292,
        "lon": -72.76825280966573,
        "alt_km": 23200.22737696768,
        "timestamp": "2025-12-26T07:29:18.718672+00:00",
        "meta_object_name": "GSAT0205 (GALILEO 9)",
        "meta_object_id": "2015-045A",
        "meta_epoch": "2025-12-23T06:16:38.782272",
        "meta_mean_motion": 1.70473104,
        "meta_eccentricity": 0.00062228,
        "meta_inclination": 55.0001,
        "meta_ra_of_asc_node": 226.4673,
        "meta_arg_of_pericenter": 42.5636,
        "meta_mean_anomaly": 317.5856,
        "meta_ephemeris_type": 0,
        "meta_classification_type": "U",
        "meta_norad_cat_id": 40889,
        "meta_element_set_no": 999,
        "meta_rev_at_epoch": 6401,
        "meta_bstar": 0,
        "meta_mean_motion_dot": 7.3e-07,
        "meta_mean_motion_ddot": 0,
        "tle_line1": "1 40889U 15045A   25357.26155998  .00000073  00000+0  00000+0 0  9999",
        "tle_line2": "2 40889  55.0001 226.4673 0006222  42.5636 317.5856  1.70473104 64013"
      },
      "geometry": {
        "type": "Point",
        "coordinates": [
          -72.76825280966573,
          51.26425633144292
        ]
      }
    },
    {
      "type": "Feature",
      "properties": {
        "norad_id": 40890,
        "name": "GSAT0206 (GALILEO 10)",
        "group": "galileo",
        "lat": -47.010342939119354,
        "lon": 177.6741143987437,
        "alt_km": 23230.72070282141,
        "timestamp": "2025-12-26T07:29:18.718685+00:00",
        "meta_object_name": "GSAT0206 (GALILEO 10)",
        "meta_object_id": "2015-045B",
        "meta_epoch": "2025-12-25T05:48:23.394816",
        "meta_mean_motion": 1.7047315,
        "meta_eccentricity": 0.0004109,
        "meta_inclination": 54.9985,
        "meta_ra_of_asc_node": 226.4076,
        "meta_arg_of_pericenter": 41.5093,
        "meta_mean_anomaly": 318.6128,
        "meta_ephemeris_type": 0,
        "meta_classification_type": "U",
        "meta_norad_cat_id": 40890,
        "meta_element_set_no": 999,
        "meta_rev_at_epoch": 6407,
        "meta_bstar": 0,
        "meta_mean_motion_dot": 7e-07,
        "meta_mean_motion_ddot": 0,
        "tle_line1": "1 40890U 15045B   25359.24193744  .00000070  00000+0  00000+0 0  9999",
        "tle_line2": "2 40890  54.9985 226.4076 0004109  41.5093 318.6128  1.70473150 64070"
      },
      "geometry": {
        "type": "Point",
        "coordinates": [
          177.6741143987437,
          -47.010342939119354
        ]
      }
    },
    {
      "type": "Feature",
      "properties": {
        "norad_id": 41174,
        "name": "GSAT0209 (GALILEO 12)",
        "group": "galileo",
        "lat": -11.216298444918294,
        "lon": -66.22879421237394,
        "alt_km": 23230.247112589677,
        "timestamp": "2025-12-26T07:29:18.718696+00:00",
        "meta_object_name": "GSAT0209 (GALILEO 12)",
        "meta_object_id": "2015-079A",
        "meta_epoch": "2025-12-21T21:22:17.332896",
        "meta_mean_motion": 1.70474556,
        "meta_eccentricity": 0.00025231,
        "meta_inclination": 55.7178,
        "meta_ra_of_asc_node": 106.13,
        "meta_arg_of_pericenter": 342.7574,
        "meta_mean_anomaly": 17.2091,
        "meta_ephemeris_type": 0,
        "meta_classification_type": "U",
        "meta_norad_cat_id": 41174,
        "meta_element_set_no": 999,
        "meta_rev_at_epoch": 6175,
        "meta_bstar": 0,
        "meta_mean_motion_dot": 5e-08,
        "meta_mean_motion_ddot": 0,
        "tle_line1": "1 41174U 15079A   25355.89047839  .00000005  00000+0  00000+0 0  9990",
        "tle_line2": "2 41174  55.7178 106.1300 0002523 342.7574  17.2091  1.70474556 61755"
      },
      "geometry": {
        "type": "Point",
        "coordinates": [
          -66.22879421237394,
          -11.216298444918294
        ]
      }
    },
    {
      "type": "Feature",
      "properties": {
        "norad_id": 41175,
        "name": "GSAT0208 (GALILEO 11)",
        "group": "galileo",
        "lat": 44.79851287203447,
        "lon": 148.56824074656743,
        "alt_km": 23214.789581427514,
        "timestamp": "2025-12-26T07:29:18.718707+00:00",
        "meta_object_name": "GSAT0208 (GALILEO 11)",
        "meta_object_id": "2015-079B",
        "meta_epoch": "2025-12-24T10:58:05.169792",
        "meta_mean_motion": 1.70474188,
        "meta_eccentricity": 0.0001919,
        "meta_inclination": 55.7178,
        "meta_ra_of_asc_node": 106.0566,
        "meta_arg_of_pericenter": 349.2148,
        "meta_mean_anomaly": 10.7717,
        "meta_ephemeris_type": 0,
        "meta_classification_type": "U",
        "meta_norad_cat_id": 41175,
        "meta_element_set_no": 999,
        "meta_rev_at_epoch": 6221,
        "meta_bstar": 0,
        "meta_mean_motion_dot": 1.6e-07,
        "meta_mean_motion_ddot": 0,
        "tle_line1": "1 41175U 15079B   25358.45700428  .00000016  00000+0  00000+0 0  9998",
        "tle_line2": "2 41175  55.7178 106.0566 0001919 349.2148  10.7717  1.70474188 62212"
      },
      "geometry": {
        "type": "Point",
        "coordinates": [
          148.56824074656743,
          44.79851287203447
        ]
      }
    },
    {
      "type": "Feature",
      "properties": {
        "norad_id": 41549,
        "name": "GSAT0211 (GALILEO 14)",
        "group": "galileo",
        "lat": -14.452619675071784,
        "lon": -143.87972374257163,
        "alt_km": 23214.492359660817,
        "timestamp": "2025-12-26T07:29:18.718718+00:00",
        "meta_object_name": "GSAT0211 (GALILEO 14)",
        "meta_object_id": "2016-030A",
        "meta_epoch": "2025-12-23T23:52:07.352256",
        "meta_mean_motion": 1.70473256,
        "meta_eccentricity": 0.0004011,
        "meta_inclination": 55.1486,
        "meta_ra_of_asc_node": 226.5135,
        "meta_arg_of_pericenter": 16.1635,
        "meta_mean_anomaly": 343.9466,
        "meta_ephemeris_type": 0,
        "meta_classification_type": "U",
        "meta_norad_cat_id": 41549,
        "meta_element_set_no": 999,
        "meta_rev_at_epoch": 5968,
        "meta_bstar": 0,
        "meta_mean_motion_dot": 7.2e-07,
        "meta_mean_motion_ddot": 0,
        "tle_line1": "1 41549U 16030A   25357.99452954  .00000072  00000+0  00000+0 0  9999",
        "tle_line2": "2 41549  55.1486 226.5135 0004011  16.1635 343.9466  1.70473256 59684"
      },
      "geometry": {
        "type": "Point",
        "coordinates": [
          -143.87972374257163,
          -14.452619675071784
        ]
      }
    },
    {
      "type": "Feature",
      "properties": {
        "norad_id": 41550,
        "name": "GSAT0210 (GALILEO 13)",
        "group": "galileo",
        "lat": -3.5915690347557,
        "lon": 48.967410658724624,
        "alt_km": 23221.322957414734,
        "timestamp": "2025-12-26T07:29:18.718730+00:00",
        "meta_object_name": "GSAT0210 (GALILEO 13)",
        "meta_object_id": "2016-030B",
        "meta_epoch": "2025-12-24T20:07:27.603552",
        "meta_mean_motion": 1.70473396,
        "meta_eccentricity": 5.683e-05,
        "meta_inclination": 55.1478,
        "meta_ra_of_asc_node": 226.4883,
        "meta_arg_of_pericenter": 175.0994,
        "meta_mean_anomaly": 184.9941,
        "meta_ephemeris_type": 0,
        "meta_classification_type": "U",
        "meta_norad_cat_id": 41550,
        "meta_element_set_no": 999,
        "meta_rev_at_epoch": 5969,
        "meta_bstar": 0,
        "meta_mean_motion_dot": 7.1e-07,
        "meta_mean_motion_ddot": 0,
        "tle_line1": "1 41550U 16030B   25358.83851393  .00000071  00000+0  00000+0 0  9994",
        "tle_line2": "2 41550  55.1478 226.4883 0000568 175.0994 184.9941  1.70473396 59699"
      },
      "geometry": {
        "type": "Point",
        "coordinates": [
          48.967410658724624,
          -3.5915690347557
        ]
      }
    },
    {
      "type": "Feature",
      "properties": {
        "norad_id": 41859,
        "name": "GSAT0207 (GALILEO 15)",
        "group": "galileo",
        "lat": 11.146712867481822,
        "lon": 113.68388680959566,
        "alt_km": 23216.902145874847,
        "timestamp": "2025-12-26T07:29:18.718741+00:00",
        "meta_object_name": "GSAT0207 (GALILEO 15)",
        "meta_object_id": "2016-069A",
        "meta_epoch": "2025-12-22T04:24:39.710016",
        "meta_mean_motion": 1.70474442,
        "meta_eccentricity": 0.00024396,
        "meta_inclination": 55.3874,
        "meta_ra_of_asc_node": 105.9888,
        "meta_arg_of_pericenter": 317.4324,
        "meta_mean_anomaly": 42.5257,
        "meta_ephemeris_type": 0,
        "meta_classification_type": "U",
        "meta_norad_cat_id": 41859,
        "meta_element_set_no": 999,
        "meta_rev_at_epoch": 5638,
        "meta_bstar": 0,
        "meta_mean_motion_dot": 6e-08,
        "meta_mean_motion_ddot": 0,
        "tle_line1": "1 41859U 16069A   25356.18379294  .00000006  00000+0  00000+0 0  9997",
        "tle_line2": "2 41859  55.3874 105.9888 0002439 317.4324  42.5257  1.70474442 56382"
      },
      "geometry": {
        "type": "Point",
        "coordinates": [
          113.68388680959566,
          11.146712867481822
        ]
      }
    }
  ]
}